HELIOS 2A               
1 28492U 04049A   22342.26605459  .00001072  00000+0  10735-3 0  9990
2 28492  98.2549 293.6187 0012839 228.9362 131.0751 14.93650589961065
SPIRALE A               
1 33751U 09008C   22341.70002694  .00000149  00000+0  58423-3 0  9994
2 33751   2.0821  89.4964 5458301 214.6434  92.6494  4.58892324202771
SPIRALE B               
1 33752U 09008D   22341.70269418  .00002119  00000+0  86084-3 0  9997
2 33752   2.2080  24.2063 6837191 335.5753   3.4797  2.83486003129980
SAPPHIRE                
1 39088U 13009C   22341.97807482  .00000126  00000+0  59771-4 0  9999
2 39088  98.4163 173.3477 0012371 118.3831 241.8603 14.34348432512011
